[{"OBJECT_NAME":"STARLINK-3177","OBJECT_ID":"2022-005AL","EPOCH":"2025-11-04T06:21:53.828640","MEAN_MOTION":15.0883386,"ECCENTRICITY":6.55e-5,"INCLINATION":53.2174,"RA_OF_ASC_NODE":142.1748,"ARG_OF_PERICENTER":39.2601,"MEAN_ANOMALY":320.8438,"EPHEMERIS_TYPE":0,"CLASSIFICATION_TYPE":"U","NORAD_CAT_ID":51138,"ELEMENT_SET_NO":999,"REV_AT_EPOCH":20979,"BSTAR":5.6347e-5,"MEAN_MOTION_DOT":6.09e-6,"MEAN_MOTION_DDOT":0},{"OBJECT_NAME":"STARLINK-3172","OBJECT_ID":"2022-005AM","EPOCH":"2025-11-03T23:40:30.872352","MEAN_MOTION":15.08840151,"ECCENTRICITY":0.00011942,"INCLINATION":53.2156,"RA_OF_ASC_NODE":143.4337,"ARG_OF_PERICENTER":102.0986,"MEAN_ANOMALY":258.014,"EPHEMERIS_TYPE":0,"CLASSIFICATION_TYPE":"U","NORAD_CAT_ID":51139,"ELEMENT_SET_NO":999,"REV_AT_EPOCH":20976,"BSTAR":9.6057826e-5,"MEAN_MOTION_DOT":1.241e-5,"MEAN_MOTION_DDOT":0},{"OBJECT_NAME":"STARLINK-3175","OBJECT_ID":"2022-005AN","EPOCH":"2025-11-03T00:05:35.809152","MEAN_MOTION":15.08861278,"ECCENTRICITY":0.00016182,"INCLINATION":53.2158,"RA_OF_ASC_NODE":147.8482,"ARG_OF_PERICENTER":84.5053,"MEAN_ANOMALY":275.6124,"EPHEMERIS_TYPE":0,"CLASSIFICATION_TYPE":"U","NORAD_CAT_ID":51140,"ELEMENT_SET_NO":999,"REV_AT_EPOCH":20961,"BSTAR":0.00024667428,"MEAN_MOTION_DOT":3.642e-5,"MEAN_MOTION_DDOT":0},{"OBJECT_NAME":"STARLINK-3179","OBJECT_ID":"2022-005AP","EPOCH":"2025-11-03T23:28:32.443392","MEAN_MOTION":15.08836829,"ECCENTRICITY":0.0001392,"INCLINATION":53.2153,"RA_OF_ASC_NODE":143.461,"ARG_OF_PERICENTER":91.1967,"MEAN_ANOMALY":268.9184,"EPHEMERIS_TYPE":0,"CLASSIFICATION_TYPE":"U","NORAD_CAT_ID":51141,"ELEMENT_SET_NO":999,"REV_AT_EPOCH":20976,"BSTAR":2.2812471e-5,"MEAN_MOTION_DOT":7.5e-7,"MEAN_MOTION_DDOT":0},{"OBJECT_NAME":"STARLINK-3369","OBJECT_ID":"2022-005AQ","EPOCH":"2025-11-04T05:09:14.103648","MEAN_MOTION":15.12955086,"ECCENTRICITY":0.0007174,"INCLINATION":53.2119,"RA_OF_ASC_NODE":131.4666,"ARG_OF_PERICENTER":138.5181,"MEAN_ANOMALY":221.6359,"EPHEMERIS_TYPE":0,"CLASSIFICATION_TYPE":"U","NORAD_CAT_ID":51142,"ELEMENT_SET_NO":999,"REV_AT_EPOCH":20994,"BSTAR":0.0013331,"MEAN_MOTION_DOT":0.00023566,"MEAN_MOTION_DDOT":0},{"OBJECT_NAME":"STARLINK-3184","OBJECT_ID":"2022-005AR","EPOCH":"2025-11-03T23:06:01.260576","MEAN_MOTION":15.08839014,"ECCENTRICITY":0.0001409,"INCLINATION":53.2168,"RA_OF_ASC_NODE":153.5334,"ARG_OF_PERICENTER":87.9353,"MEAN_ANOMALY":272.18,"EPHEMERIS_TYPE":0,"CLASSIFICATION_TYPE":"U","NORAD_CAT_ID":51143,"ELEMENT_SET_NO":999,"REV_AT_EPOCH":20961,"BSTAR":3.7384e-5,"MEAN_MOTION_DOT":3.07e-6,"MEAN_MOTION_DDOT":0},{"OBJECT_NAME":"STARLINK-3185","OBJECT_ID":"2022-005AS","EPOCH":"2025-11-04T05:56:45.767616","MEAN_MOTION":15.08837098,"ECCENTRICITY":0.0001447,"INCLINATION":53.2153,"RA_OF_ASC_NODE":142.2609,"ARG_OF_PERICENTER":89.9619,"MEAN_ANOMALY":270.1538,"EPHEMERIS_TYPE":0,"CLASSIFICATION_TYPE":"U","NORAD_CAT_ID":51144,"ELEMENT_SET_NO":999,"REV_AT_EPOCH":20980,"BSTAR":5.2086e-5,"MEAN_MOTION_DOT":5.41e-6,"MEAN_MOTION_DDOT":0},{"OBJECT_NAME":"STARLINK-3354","OBJECT_ID":"2022-005AU","EPOCH":"2025-11-04T06:07:21.586080","MEAN_MOTION":15.08836744,"ECCENTRICITY":0.0001476,"INCLINATION":53.2152,"RA_OF_ASC_NODE":142.2297,"ARG_OF_PERICENTER":88.2981,"MEAN_ANOMALY":271.818,"EPHEMERIS_TYPE":0,"CLASSIFICATION_TYPE":"U","NORAD_CAT_ID":51146,"ELEMENT_SET_NO":999,"REV_AT_EPOCH":20979,"BSTAR":2.399e-5,"MEAN_MOTION_DOT":9.4e-7,"MEAN_MOTION_DDOT":0},{"OBJECT_NAME":"STARLINK-3352","OBJECT_ID":"2022-005AV","EPOCH":"2025-11-04T07:05:32.648064","MEAN_MOTION":15.14956493,"ECCENTRICITY":0.0006843,"INCLINATION":53.211,"RA_OF_ASC_NODE":149.9288,"ARG_OF_PERICENTER":105.5023,"MEAN_ANOMALY":254.6728,"EPHEMERIS_TYPE":0,"CLASSIFICATION_TYPE":"U","NORAD_CAT_ID":51147,"ELEMENT_SET_NO":999,"REV_AT_EPOCH":20969,"BSTAR":0.0015754,"MEAN_MOTION_DOT":0.00029555,"MEAN_MOTION_DDOT":0},{"OBJECT_NAME":"STARLINK-3359","OBJECT_ID":"2022-005AW","EPOCH":"2025-11-04T07:20:17.294208","MEAN_MOTION":15.08833087,"ECCENTRICITY":0.0001816,"INCLINATION":53.2143,"RA_OF_ASC_NODE":152.1932,"ARG_OF_PERICENTER":84.2116,"MEAN_ANOMALY":275.9083,"EPHEMERIS_TYPE":0,"CLASSIFICATION_TYPE":"U","NORAD_CAT_ID":51148,"ELEMENT_SET_NO":999,"REV_AT_EPOCH":20966,"BSTAR":0.00037012,"MEAN_MOTION_DOT":5.606e-5,"MEAN_MOTION_DDOT":0},{"OBJECT_NAME":"STARLINK-3360","OBJECT_ID":"2022-005AX","EPOCH":"2025-11-03T00:09:33.882624","MEAN_MOTION":15.08838596,"ECCENTRICITY":0.000155,"INCLINATION":53.2157,"RA_OF_ASC_NODE":157.6413,"ARG_OF_PERICENTER":86.5742,"MEAN_ANOMALY":273.5427,"EPHEMERIS_TYPE":0,"CLASSIFICATION_TYPE":"U","NORAD_CAT_ID":51149,"ELEMENT_SET_NO":999,"REV_AT_EPOCH":20947,"BSTAR":3.4404641e-5,"MEAN_MOTION_DOT":2.6e-6,"MEAN_MOTION_DDOT":0},{"OBJECT_NAME":"STARLINK-3357","OBJECT_ID":"2022-005AY","EPOCH":"2025-11-04T06:27:06.670080","MEAN_MOTION":15.08840818,"ECCENTRICITY":0.0001393,"INCLINATION":53.2124,"RA_OF_ASC_NODE":141.773,"ARG_OF_PERICENTER":90.0947,"MEAN_ANOMALY":270.0205,"EPHEMERIS_TYPE":0,"CLASSIFICATION_TYPE":"U","NORAD_CAT_ID":51150,"ELEMENT_SET_NO":999,"REV_AT_EPOCH":20981,"BSTAR":9.404e-6,"MEAN_MOTION_DOT":-1.38e-6,"MEAN_MOTION_DDOT":0},{"OBJECT_NAME":"STARLINK-3361","OBJECT_ID":"2022-005AZ","EPOCH":"2025-11-04T13:05:42.033696","MEAN_MOTION":16.08326134,"ECCENTRICITY":0.000699,"INCLINATION":53.1869,"RA_OF_ASC_NODE":40.8251,"ARG_OF_PERICENTER":358.6504,"MEAN_ANOMALY":1.451,"EPHEMERIS_TYPE":0,"CLASSIFICATION_TYPE":"U","NORAD_CAT_ID":51151,"ELEMENT_SET_NO":999,"REV_AT_EPOCH":21125,"BSTAR":0.00082087,"MEAN_MOTION_DOT":0.00711447,"MEAN_MOTION_DDOT":0.00027506},{"OBJECT_NAME":"STARLINK-3364","OBJECT_ID":"2022-005BA","EPOCH":"2025-11-04T07:24:06.276672","MEAN_MOTION":15.08845125,"ECCENTRICITY":0.0002264,"INCLINATION":53.2139,"RA_OF_ASC_NODE":151.594,"ARG_OF_PERICENTER":92.3303,"MEAN_ANOMALY":267.7949,"EPHEMERIS_TYPE":0,"CLASSIFICATION_TYPE":"U","NORAD_CAT_ID":51152,"ELEMENT_SET_NO":999,"REV_AT_EPOCH":20967,"BSTAR":0.0010858,"MEAN_MOTION_DOT":0.00017038,"MEAN_MOTION_DDOT":0},{"OBJECT_NAME":"STARLINK-3181","OBJECT_ID":"2022-010F","EPOCH":"2025-11-04T04:17:19.831200","MEAN_MOTION":15.08839967,"ECCENTRICITY":0.0001314,"INCLINATION":53.2111,"RA_OF_ASC_NODE":122.5595,"ARG_OF_PERICENTER":89.9283,"MEAN_ANOMALY":270.186,"EPHEMERIS_TYPE":0,"CLASSIFICATION_TYPE":"U","NORAD_CAT_ID":51461,"ELEMENT_SET_NO":999,"REV_AT_EPOCH":20787,"BSTAR":-7.1801e-5,"MEAN_MOTION_DOT":-1.43e-5,"MEAN_MOTION_DDOT":0},{"OBJECT_NAME":"STARLINK-3166","OBJECT_ID":"2022-010G","EPOCH":"2025-11-03T21:51:52.852032","MEAN_MOTION":15.08832025,"ECCENTRICITY":0.0001438,"INCLINATION":53.2146,"RA_OF_ASC_NODE":123.7734,"ARG_OF_PERICENTER":89.8732,"MEAN_ANOMALY":270.2425,"EPHEMERIS_TYPE":0,"CLASSIFICATION_TYPE":"U","NORAD_CAT_ID":51462,"ELEMENT_SET_NO":999,"REV_AT_EPOCH":20783,"BSTAR":-5.3955e-5,"MEAN_MOTION_DOT":-1.146e-5,"MEAN_MOTION_DDOT":0}]
