STARLINK-3177           
1 51138U 22005AL  25308.26520635  .00000609  00000+0  56347-4 0  9997
2 51138  53.2174 142.1748 0000655  39.2601 320.8438 15.08833860209793
STARLINK-3172           
1 51139U 22005AM  25307.98646843  .00001241  00000+0  96058-4 0  9992
2 51139  53.2156 143.4337 0001194 102.0986 258.0140 15.08840151209766
STARLINK-3175           
1 51140U 22005AN  25307.00388668  .00003642  00000+0  24667-3 0  9998
2 51140  53.2158 147.8482 0001618  84.5053 275.6124 15.08861278209613
STARLINK-3179           
1 51141U 22005AP  25307.97815328  .00000075  00000+0  22812-4 0  9991
2 51141  53.2153 143.4610 0001392  91.1967 268.9184 15.08836829209762
STARLINK-3369           
1 51142U 22005AQ  25308.21474657  .00023566  00000+0  13331-2 0  9990
2 51142  53.2119 131.4666 0007174 138.5181 221.6359 15.12955086209943
STARLINK-3184           
1 51143U 22005AR  25307.96251459  .00000307  00000+0  37384-4 0  9999
2 51143  53.2168 153.5334 0001409  87.9353 272.1800 15.08839014209611
STARLINK-3185           
1 51144U 22005AS  25308.24775194  .00000541  00000+0  52086-4 0  9995
2 51144  53.2153 142.2609 0001447  89.9619 270.1538 15.08837098209802
STARLINK-3354           
1 51146U 22005AU  25308.25511095  .00000094  00000+0  23990-4 0  9991
2 51146  53.2152 142.2297 0001476  88.2981 271.8180 15.08836744209798
STARLINK-3352           
1 51147U 22005AV  25308.29551676  .00029555  00000+0  15754-2 0  9995
2 51147  53.2110 149.9288 0006843 105.5023 254.6728 15.14956493209697
STARLINK-3359           
1 51148U 22005AW  25308.30575572  .00005606  00000+0  37012-3 0  9992
2 51148  53.2143 152.1932 0001816  84.2116 275.9083 15.08833087209660
STARLINK-3360           
1 51149U 22005AX  25307.00664216  .00000260  00000+0  34405-4 0  9998
2 51149  53.2157 157.6413 0001550  86.5742 273.5427 15.08838596209470
STARLINK-3357           
1 51150U 22005AY  25308.26882720 -.00000138  00000+0  94040-5 0  9998
2 51150  53.2124 141.7730 0001393  90.0947 270.0205 15.08840818209818
STARLINK-3361           
1 51151U 22005AZ  25308.54562539  .00711447  27506-3  82087-3 0  9994
2 51151  53.1869  40.8251 0006990 358.6504   1.4510 16.08326134211258
STARLINK-3364           
1 51152U 22005BA  25308.30840598  .00017038  00000+0  10858-2 0  9990
2 51152  53.2139 151.5940 0002264  92.3303 267.7949 15.08845125209675
STARLINK-3181           
1 51461U 22010F   25308.17870175 -.00001430  00000+0 -71801-4 0  9996
2 51461  53.2111 122.5595 0001314  89.9283 270.1860 15.08839967207873
STARLINK-3166           
1 51462U 22010G   25307.91102838 -.00001146  00000+0 -53955-4 0  9996
2 51462  53.2146 123.7734 0001438  89.8732 270.2425 15.08832025207837
